OBJECT_NAME,OBJECT_ID,EPOCH,MEAN_MOTION,ECCENTRICITY,INCLINATION,RA_OF_ASC_NODE,ARG_OF_PERICENTER,MEAN_ANOMALY,EPHEMERIS_TYPE,CLASSIFICATION_TYPE,NORAD_CAT_ID,ELEMENT_SET_NO,REV_AT_EPOCH,BSTAR,MEAN_MOTION_DOT,MEAN_MOTION_DDOT
AGILA,2024-252C,2026-06-10T19:08:38.980032,1.00271020,.00008198,0.0595,126.7052,344.3138,227.4476,0,U,62456,999,509,0,-.164E-5,0
NUVIEW BRAVO,2024-252D,2026-06-11T03:53:38.786208,1.00270769,.00017885,0.0691,147.6716,340.3463,106.7945,0,U,62457,999,373,0,-.198E-5,0
THURAYA-4,2025-001A,2026-06-11T06:36:46.412352,1.00270628,.00003636,0.0258,63.3641,148.3884,191.3796,0,U,62483,999,411,0,.156E-5,0
SHIJIAN-25 (SJ-25),2025-002A,2026-06-10T17:24:02.025216,1.00270786,.0052198,5.0969,61.1996,173.0037,53.2258,0,U,62485,999,529,0,-.335E-5,0
TJS-14,2025-017A,2026-06-11T06:29:17.129760,1.00271986,.00008668,0.7968,295.1755,285.8565,154.2688,0,U,62804,999,521,0,.132E-5,0
SPAINSAT NG I,2025-021A,2026-06-11T04:49:44.099904,1.00270102,.0000123,0.0165,337.3849,269.9858,113.6192,0,U,62852,999,392,0,.168E-5,0
QZS-6 (MICHIBIKI-6),2025-023A,2026-06-11T03:24:31.627872,1.00272588,.00018209,0.0382,61.1273,27.1685,312.8463,0,U,62876,999,488,0,-.216E-5,0
ZHONGXING-10R,2025-036A,2026-06-11T01:47:34.904256,1.00267914,.00033473,0.0381,249.4869,256.4365,250.9051,0,U,63075,999,489,0,-.334E-5,0
TJS-15,2025-045A,2026-06-10T17:09:39.041280,1.00273927,.0004775,0.2812,85.4141,297.7786,227.6595,0,U,63157,999,469,0,-.248E-5,0
TIANLIAN 2-04,2025-062A,2026-06-10T22:13:40.325088,1.00270973,.00316115,4.3918,274.5313,10.4420,27.7725,0,U,63361,999,454,0,-.117E-5,0
TJS-16,2025-064A,2026-06-10T17:22:08.726304,1.00271672,.000347,1.0805,81.4889,290.5844,308.1509,0,U,63397,999,432,0,-.88E-6,0
TJS-17,2025-073A,2026-06-10T17:20:12.279840,1.00271984,.0002213,1.0464,82.7454,297.9427,302.9666,0,U,63524,999,422,0,-.52E-6,0
TIANLIAN 2-05,2025-084A,2026-06-10T11:40:23.136096,1.00271081,.00033142,4.4694,279.9113,145.6423,28.7857,0,U,63662,999,431,0,.142E-5,0
TJS-19,2025-097A,2026-06-10T15:40:23.502720,1.00268154,.0002181,3.2982,317.3224,238.2370,79.8006,0,U,63924,999,407,0,-.261E-5,0
CHINASAT 3B,2025-106A,2026-06-10T15:47:52.786176,1.00269865,.0002867,0.0422,140.1340,340.7407,182.4348,0,U,64062,999,399,0,-.28E-6,0
SXM-10,2025-122A,2026-06-11T05:50:55.578912,1.00272712,.00016089,0.0207,26.2795,339.7233,225.1439,0,U,64290,999,362,0,0,0
COSMOS 2589,2025-131A,2026-06-10T17:10:46.433280,1.00270577,.000121,0.0507,77.8764,77.2620,99.6046,0,U,64467,999,349,0,-.273E-5,0
CHINASAT 9C,2025-132A,2026-06-11T03:25:01.580160,1.00271039,.00026588,0.0182,268.4671,171.2347,323.2652,0,U,64470,999,408,0,-.23E-5,0
MTG-S1,2025-143A,2026-06-11T04:40:22.497312,1.00271599,.00009741,0.6088,337.5377,19.9913,328.6325,0,U,64723,999,335,0,-.15E-6,0
DROR 1,2025-148A,2026-06-11T04:40:00.033312,1.00271603,.00026938,0.0169,34.4907,354.7355,296.3113,0,U,64784,999,323,0,-.17E-6,0
SHIYAN-29,2025-196A,2026-06-09T01:48:31.441824,1.00256520,.00109724,28.8121,18.6391,171.7452,188.2752,0,U,65486,999,279,0,-.259E-5,0
NUSANTARA LIMA (NUSANTARA 5),2025-205A,2026-06-11T01:48:19.832256,1.00270562,.00000883,0.0472,141.8447,10.0617,247.4654,0,U,65588,999,265,0,-.34E-5,0
TJS-20,2025-238A,2026-06-10T23:51:13.485312,1.00273174,.00046105,5.4844,299.5755,159.4244,220.5511,0,U,66142,999,227,0,.4E-6,0
CMS-03 (GSAT-7R),2025-249B,2026-06-11T03:19:54.570720,1.00271002,.00016393,0.0163,268.6449,168.7303,306.0864,0,U,66311,999,228,0,-.6E-6,0
VIASAT-3 F2,2025-261A,2026-06-11T03:45:38.617344,1.00272624,.00000294,0.0324,154.6055,311.2951,131.0302,0,U,66454,999,273,0,-.216E-5,0
SHIJIAN-28 (SJ-28),2025-277A,2026-06-11T05:14:41.707392,1.00266090,.00006712,4.5547,272.2309,350.0640,192.7778,0,U,66549,999,209,0,-.341E-5,0
TJS-22,2025-290A,2026-06-10T21:25:01.353792,1.00272586,.00019424,1.5434,286.4813,331.6612,28.8108,0,U,66990,999,196,0,.11E-6,0
TJS-23,2025-306A,2026-06-10T14:52:32.199168,1.00273880,.00052214,5.6025,297.5244,167.0280,193.0591,0,U,67226,999,182,0,.32E-6,0
FENGYUN 4C,2025-312A,2026-06-11T07:02:03.262848,1.00270662,.00005557,0.0350,160.9965,32.1185,305.0429,0,U,67246,999,172,0,-.306E-5,0
SHIJIAN-29A (SJ-29A),2025-315A,2026-06-11T04:02:21.755904,1.00269607,.0003174,3.3815,95.2596,24.1492,273.9255,0,U,67302,999,155,0,-.51E-6,0
SHIJIAN-29B (SJ-29B),2025-315C,2026-06-10T23:54:20.685600,1.00269582,.00036516,3.3799,95.2558,29.6250,206.3249,0,U,67403,999,162,0,-.51E-6,0
ELEKTRO-L 5,2026-028A,2026-06-10T01:42:11.662848,1.00271217,.00016547,0.2645,309.1839,181.1789,229.6639,0,U,67756,999,118,0,-.8E-6,0
