AGILA                   
1 62456U 24252C   26161.79767338 -.00000164  00000+0  00000+0 0  9994
2 62456   0.0595 126.7052 0000819 344.3138 227.4476  1.00271020  5090
NUVIEW BRAVO            
1 62457U 24252D   26162.16225447 -.00000198  00000+0  00000+0 0  9994
2 62457   0.0691 147.6716 0001788 340.3463 106.7945  1.00270769  3738
THURAYA-4               
1 62483U 25001A   26162.27553718  .00000156  00000+0  00000+0 0  9996
2 62483   0.0258  63.3641 0000363 148.3884 191.3796  1.00270628  4119
SHIJIAN-25 (SJ-25)      
1 62485U 25002A   26161.72502344 -.00000335  00000+0  00000+0 0  9997
2 62485   5.0969  61.1996 0052198 173.0037  53.2258  1.00270786  5296
TJS-14                  
1 62804U 25017A   26162.27033715  .00000132  00000+0  00000+0 0  9994
2 62804   0.7968 295.1755 0000866 285.8565 154.2688  1.00271986  5211
SPAINSAT NG I           
1 62852U 25021A   26162.20120486  .00000168  00000+0  00000+0 0  9996
2 62852   0.0165 337.3849 0000123 269.9858 113.6192  1.00270102  3927
QZS-6 (MICHIBIKI-6)     
1 62876U 25023A   26162.14203273 -.00000216  00000+0  00000+0 0  9998
2 62876   0.0382  61.1273 0001820  27.1685 312.8463  1.00272588  4884
ZHONGXING-10R           
1 63075U 25036A   26162.07470954 -.00000334  00000+0  00000+0 0  9999
2 63075   0.0381 249.4869 0003347 256.4365 250.9051  1.00267914  4898
TJS-15                  
1 63157U 25045A   26161.71503520 -.00000248  00000+0  00000+0 0  9990
2 63157   0.2812  85.4141 0004775 297.7786 227.6595  1.00273927  4695
TIANLIAN 2-04           
1 63361U 25062A   26161.92616117 -.00000117  00000+0  00000+0 0  9991
2 63361   4.3918 274.5313 0031611  10.4420  27.7725  1.00270973  4546
TJS-16                  
1 63397U 25064A   26161.72371211 -.00000088  00000+0  00000+0 0  9990
2 63397   1.0805  81.4889 0003470 290.5844 308.1509  1.00271672  4329
TJS-17                  
1 63524U 25073A   26161.72236435 -.00000052  00000+0  00000+0 0  9991
2 63524   1.0464  82.7454 0002213 297.9427 302.9666  1.00271984  4227
TIANLIAN 2-05           
1 63662U 25084A   26161.48637889  .00000142  00000+0  00000+0 0  9996
2 63662   4.4694 279.9113 0003314 145.6423  28.7857  1.00271081  4315
TJS-19                  
1 63924U 25097A   26161.65304980 -.00000261  00000+0  00000+0 0  9996
2 63924   3.2982 317.3224 0002181 238.2370  79.8006  1.00268154  4077
CHINASAT 3B             
1 64062U 25106A   26161.65824984 -.00000028  00000+0  00000+0 0  9993
2 64062   0.0422 140.1340 0002867 340.7407 182.4348  1.00269865  3997
SXM-10                  
1 64290U 25122A   26162.24369883  .00000000  00000+0  00000+0 0  9991
2 64290   0.0207  26.2795 0001608 339.7233 225.1439  1.00272712  3627
COSMOS 2589             
1 64467U 25131A   26161.71581520 -.00000273  00000+0  00000+0 0  9995
2 64467   0.0507  77.8764 0001210  77.2620  99.6046  1.00270577  3497
CHINASAT 9C             
1 64470U 25132A   26162.14237940 -.00000230  00000+0  00000+0 0  9995
2 64470   0.0182 268.4671 0002658 171.2347 323.2652  1.00271039  4082
MTG-S1                  
1 64723U 25143A   26162.19470483 -.00000015  00000+0  00000+0 0  9995
2 64723   0.6088 337.5377 0000974  19.9913 328.6325  1.00271599  3357
DROR 1                  
1 64784U 25148A   26162.19444483 -.00000017  00000+0  00000+0 0  9990
2 64784   0.0169  34.4907 0002693 354.7355 296.3113  1.00271603  3239
SHIYAN-29               
1 65486U 25196A   26160.07536391 -.00000259  00000+0  00000+0 0  9996
2 65486  28.8121  18.6391 0010972 171.7452 188.2752  1.00256520  2799
NUSANTARA LIMA (NUSANT*)
1 65588U 25205A   26162.07522954 -.00000340  00000+0  00000+0 0  9993
2 65588   0.0472 141.8447 0000088  10.0617 247.4654  1.00270562  2655
TJS-20                  
1 66142U 25238A   26161.99390608  .00000040  00000+0  00000+0 0  9991
2 66142   5.4844 299.5755 0004610 159.4244 220.5511  1.00273174  2270
CMS-03 (GSAT-7R)        
1 66311U 25249B   26162.13882605 -.00000060  00000+0  00000+0 0  9994
2 66311   0.0163 268.6449 0001639 168.7303 306.0864  1.00271002  2287
VIASAT-3 F2             
1 66454U 25261A   26162.15669696 -.00000216  00000+0  00000+0 0  9994
2 66454   0.0324 154.6055 0000029 311.2951 131.0302  1.00272624  2731
SHIJIAN-28 (SJ-28)      
1 66549U 25277A   26162.21853828 -.00000341  00000+0  00000+0 0  9994
2 66549   4.5547 272.2309 0000671 350.0640 192.7778  1.00266090  2090
TJS-22                  
1 66990U 25290A   26161.89237678  .00000011  00000+0  00000+0 0  9994
2 66990   1.5434 286.4813 0001942 331.6612  28.8108  1.00272586  1963
TJS-23                  
1 67226U 25306A   26161.61981712  .00000032  00000+0  00000+0 0  9993
2 67226   5.6025 297.5244 0005221 167.0280 193.0591  1.00273880  1828
FENGYUN 4C              
1 67246U 25312A   26162.29309332 -.00000306  00000+0  00000+0 0  9994
2 67246   0.0350 160.9965 0000555  32.1185 305.0429  1.00270662  1723
SHIJIAN-29A (SJ-29A)    
1 67302U 25315A   26162.16830736 -.00000051  00000+0  00000+0 0  9990
2 67302   3.3815  95.2596 0003174  24.1492 273.9255  1.00269607  1558
SHIJIAN-29B (SJ-29B)    
1 67403U 25315C   26161.99607275 -.00000051  00000+0  00000+0 0  9992
2 67403   3.3799  95.2558 0003651  29.6250 206.3249  1.00269582  1624
ELEKTRO-L 5             
1 67756U 26028A   26161.07096832 -.00000080  00000+0  00000+0 0  9997
2 67756   0.2645 309.1839 0001654 181.1789 229.6639  1.00271217  1182
